{
  "type": "FeatureCollection",
  "features": [
    {
      "type": "Feature",
      "properties": {
        "norad_id": 60182,
        "name": "ALOS-4 (DAICHI-4)",
        "group": "resource",
        "lat": 45.504205403710124,
        "lon": 83.53658170109557,
        "alt_km": 626.3960872007738,
        "timestamp": "2025-12-22T23:36:20.357654+00:00",
        "meta_object_name": "ALOS-4 (DAICHI-4)",
        "meta_object_id": "2024-123A",
        "meta_epoch": "2025-12-20T19:27:23.067360",
        "meta_mean_motion": 14.79476697,
        "meta_eccentricity": 0.00013881,
        "meta_inclination": 97.9224,
        "meta_ra_of_asc_node": 89.5428,
        "meta_arg_of_pericenter": 101.339,
        "meta_mean_anomaly": 258.7977,
        "meta_ephemeris_type": 0,
        "meta_classification_type": "U",
        "meta_norad_cat_id": 60182,
        "meta_element_set_no": 999,
        "meta_rev_at_epoch": 7950,
        "meta_bstar": 0.00018374076,
        "meta_mean_motion_dot": 1.321e-05,
        "meta_mean_motion_ddot": 0,
        "tle_line1": "1 60182U 24123A   25354.81068365  .00001321  00000+0  18374-3 0  9997",
        "tle_line2": "2 60182  97.9224  89.5428 0001388 101.3390 258.7977 14.79476697 79501"
      },
      "geometry": {
        "type": "Point",
        "coordinates": [
          83.53658170109557,
          45.504205403710124
        ]
      }
    },
    {
      "type": "Feature",
      "properties": {
        "norad_id": 60452,
        "name": "LEGION 3",
        "group": "resource",
        "lat": 41.25960858445694,
        "lon": -43.402615810253565,
        "alt_km": 522.8512868908538,
        "timestamp": "2025-12-22T23:36:20.357664+00:00",
        "meta_object_name": "LEGION 3",
        "meta_object_id": "2024-146A",
        "meta_epoch": "2025-12-22T13:48:46.214496",
        "meta_mean_motion": 15.15855127,
        "meta_eccentricity": 0.00157138,
        "meta_inclination": 45.001,
        "meta_ra_of_asc_node": 257.4019,
        "meta_arg_of_pericenter": 251.3084,
        "meta_mean_anomaly": 108.6089,
        "meta_ephemeris_type": 0,
        "meta_classification_type": "U",
        "meta_norad_cat_id": 60452,
        "meta_element_set_no": 999,
        "meta_rev_at_epoch": 7522,
        "meta_bstar": 0.00024207637,
        "meta_mean_motion_dot": 4.458e-05,
        "meta_mean_motion_ddot": 0,
        "tle_line1": "1 60452U 24146A   25356.57553489  .00004458  00000+0  24208-3 0  9990",
        "tle_line2": "2 60452  45.0010 257.4019 0015713 251.3084 108.6089 15.15855127 75225"
      },
      "geometry": {
        "type": "Point",
        "coordinates": [
          -43.402615810253565,
          41.25960858445694
        ]
      }
    },
    {
      "type": "Feature",
      "properties": {
        "norad_id": 60453,
        "name": "LEGION 4",
        "group": "resource",
        "lat": 40.971065245098856,
        "lon": 47.19840616824649,
        "alt_km": 509.0443448270644,
        "timestamp": "2025-12-22T23:36:20.357674+00:00",
        "meta_object_name": "LEGION 4",
        "meta_object_id": "2024-146B",
        "meta_epoch": "2025-12-22T10:39:19.162656",
        "meta_mean_motion": 15.15920037,
        "meta_eccentricity": 0.00084575,
        "meta_inclination": 45.0393,
        "meta_ra_of_asc_node": 349.8859,
        "meta_arg_of_pericenter": 4.1914,
        "meta_mean_anomaly": 355.9035,
        "meta_ephemeris_type": 0,
        "meta_classification_type": "U",
        "meta_norad_cat_id": 60453,
        "meta_element_set_no": 999,
        "meta_rev_at_epoch": 7405,
        "meta_bstar": 0.00030737211,
        "meta_mean_motion_dot": 5.734e-05,
        "meta_mean_motion_ddot": 0,
        "tle_line1": "1 60453U 24146B   25356.44397179  .00005734  00000+0  30737-3 0  9991",
        "tle_line2": "2 60453  45.0393 349.8859 0008457   4.1914 355.9035 15.15920037 74052"
      },
      "geometry": {
        "type": "Point",
        "coordinates": [
          47.19840616824649,
          40.971065245098856
        ]
      }
    },
    {
      "type": "Feature",
      "properties": {
        "norad_id": 60989,
        "name": "SENTINEL-2C",
        "group": "resource",
        "lat": 1.0177303356872682,
        "lon": -110.52861690433762,
        "alt_km": 791.7313745702222,
        "timestamp": "2025-12-22T23:36:20.357685+00:00",
        "meta_object_name": "SENTINEL-2C",
        "meta_object_id": "2024-157A",
        "meta_epoch": "2025-12-22T02:37:57.768096",
        "meta_mean_motion": 14.30821207,
        "meta_eccentricity": 0.00011935,
        "meta_inclination": 98.5671,
        "meta_ra_of_asc_node": 68.4569,
        "meta_arg_of_pericenter": 95.079,
        "meta_mean_anomaly": 265.0529,
        "meta_ephemeris_type": 0,
        "meta_classification_type": "U",
        "meta_norad_cat_id": 60989,
        "meta_element_set_no": 999,
        "meta_rev_at_epoch": 6766,
        "meta_bstar": 7.3686296e-05,
        "meta_mean_motion_dot": 1.5e-06,
        "meta_mean_motion_ddot": 0,
        "tle_line1": "1 60989U 24157A   25356.10969639  .00000150  00000+0  73686-4 0  9994",
        "tle_line2": "2 60989  98.5671  68.4569 0001193  95.0790 265.0529 14.30821207 67664"
      },
      "geometry": {
        "type": "Point",
        "coordinates": [
          -110.52861690433762,
          1.0177303356872682
        ]
      }
    },
    {
      "type": "Feature",
      "properties": {
        "norad_id": 61735,
        "name": "IONOSFERA-M 1",
        "group": "resource",
        "lat": 32.58685929600429,
        "lon": 52.39610828164445,
        "alt_km": 814.4385938289752,
        "timestamp": "2025-12-22T23:36:20.357695+00:00",
        "meta_object_name": "IONOSFERA-M 1",
        "meta_object_id": "2024-199A",
        "meta_epoch": "2025-12-22T19:32:30.501888",
        "meta_mean_motion": 14.2271614,
        "meta_eccentricity": 4.64e-05,
        "meta_inclination": 98.7404,
        "meta_ra_of_asc_node": 226.5848,
        "meta_arg_of_pericenter": 7.513,
        "meta_mean_anomaly": 352.6055,
        "meta_ephemeris_type": 0,
        "meta_classification_type": "U",
        "meta_norad_cat_id": 61735,
        "meta_element_set_no": 999,
        "meta_rev_at_epoch": 10262,
        "meta_bstar": 4.3077e-05,
        "meta_mean_motion_dot": 5.2e-07,
        "meta_mean_motion_ddot": 0,
        "tle_line1": "1 61735U 24199A   25356.81424192  .00000052  00000+0  43077-4 0  9990",
        "tle_line2": "2 61735  98.7404 226.5848 0000464   7.5130 352.6055 14.22716140102626"
      },
      "geometry": {
        "type": "Point",
        "coordinates": [
          52.39610828164445,
          32.58685929600429
        ]
      }
    },
    {
      "type": "Feature",
      "properties": {
        "norad_id": 61736,
        "name": "IONOSFERA-M 2",
        "group": "resource",
        "lat": -30.104144379321674,
        "lon": -128.218217637206,
        "alt_km": 822.8733028811957,
        "timestamp": "2025-12-22T23:36:20.357705+00:00",
        "meta_object_name": "IONOSFERA-M 2",
        "meta_object_id": "2024-199B",
        "meta_epoch": "2025-12-22T15:18:33.783264",
        "meta_mean_motion": 14.22718309,
        "meta_eccentricity": 0.00018314,
        "meta_inclination": 98.7396,
        "meta_ra_of_asc_node": 226.3222,
        "meta_arg_of_pericenter": 97.8626,
        "meta_mean_anomaly": 262.276,
        "meta_ephemeris_type": 0,
        "meta_classification_type": "U",
        "meta_norad_cat_id": 61736,
        "meta_element_set_no": 999,
        "meta_rev_at_epoch": 10572,
        "meta_bstar": 4.3957363e-05,
        "meta_mean_motion_dot": 5.4e-07,
        "meta_mean_motion_ddot": 0,
        "tle_line1": "1 61736U 24199B   25356.63789101  .00000054  00000+0  43957-4 0  9994",
        "tle_line2": "2 61736  98.7396 226.3222 0001831  97.8626 262.2760 14.22718309105724"
      },
      "geometry": {
        "type": "Point",
        "coordinates": [
          -128.218217637206,
          -30.104144379321674
        ]
      }
    },
    {
      "type": "Feature",
      "properties": {
        "norad_id": 63772,
        "name": "BIOMASS",
        "group": "resource",
        "lat": 11.643709087493308,
        "lon": -179.83161756117735,
        "alt_km": 670.0181056531801,
        "timestamp": "2025-12-22T23:36:20.357715+00:00",
        "meta_object_name": "BIOMASS",
        "meta_object_id": "2025-090A",
        "meta_epoch": "2025-12-22T12:05:51.393984",
        "meta_mean_motion": 14.67537759,
        "meta_eccentricity": 0.00010953,
        "meta_inclination": 98.0697,
        "meta_ra_of_asc_node": 181.3714,
        "meta_arg_of_pericenter": 82.1383,
        "meta_mean_anomaly": 277.9946,
        "meta_ephemeris_type": 0,
        "meta_classification_type": "U",
        "meta_norad_cat_id": 63772,
        "meta_element_set_no": 999,
        "meta_rev_at_epoch": 3477,
        "meta_bstar": 0.00022198106,
        "meta_mean_motion_dot": 1.211e-05,
        "meta_mean_motion_ddot": 0,
        "tle_line1": "1 63772U 25090A   25356.50406706  .00001211  00000+0  22198-3 0  9999",
        "tle_line2": "2 63772  98.0697 181.3714 0001095  82.1383 277.9946 14.67537759 34770"
      },
      "geometry": {
        "type": "Point",
        "coordinates": [
          -179.83161756117735,
          11.643709087493308
        ]
      }
    }
  ]
}